{
  "type": "FeatureCollection",
  "features": [
    {
      "type": "Feature",
      "properties": {
        "norad_id": 24946,
        "name": "IRIDIUM 33",
        "group": "iridium-33-debris",
        "lat": 53.03707448535009,
        "lon": -114.16187050963708,
        "alt_km": 770.5244916830143,
        "timestamp": "2025-12-06T22:38:43.113142+00:00",
        "meta_object_name": "IRIDIUM 33",
        "meta_object_id": "1997-051C",
        "meta_epoch": "2025-12-06T15:21:43.633440",
        "meta_mean_motion": 14.35030736,
        "meta_eccentricity": 0.00063953,
        "meta_inclination": 86.387,
        "meta_ra_of_asc_node": 70.7817,
        "meta_arg_of_pericenter": 223.4108,
        "meta_mean_anomaly": 136.6585,
        "meta_ephemeris_type": 0,
        "meta_classification_type": "U",
        "meta_norad_cat_id": 24946,
        "meta_element_set_no": 999,
        "meta_rev_at_epoch": 47747,
        "meta_bstar": 0.00023931477,
        "meta_mean_motion_dot": 7.01e-06,
        "meta_mean_motion_ddot": 0,
        "tle_line1": "1 24946U 97051C   25340.64008835  .00000701  00000+0  23931-3 0  9993",
        "tle_line2": "2 24946  86.3870  70.7817 0006395 223.4108 136.6585 14.35030736477477"
      },
      "geometry": {
        "type": "Point",
        "coordinates": [
          -114.16187050963708,
          53.03707448535009
        ]
      }
    },
    {
      "type": "Feature",
      "properties": {
        "norad_id": 33773,
        "name": "IRIDIUM 33 DEB",
        "group": "iridium-33-debris",
        "lat": -85.43430092325366,
        "lon": 11.047050097295703,
        "alt_km": 758.0458838792892,
        "timestamp": "2025-12-06T22:38:43.113187+00:00",
        "meta_object_name": "IRIDIUM 33 DEB",
        "meta_object_id": "1997-051L",
        "meta_epoch": "2025-12-06T14:43:46.808544",
        "meta_mean_motion": 14.43237139,
        "meta_eccentricity": 0.00119079,
        "meta_inclination": 86.4017,
        "meta_ra_of_asc_node": 63.1853,
        "meta_arg_of_pericenter": 164.801,
        "meta_mean_anomaly": 195.3551,
        "meta_ephemeris_type": 0,
        "meta_classification_type": "U",
        "meta_norad_cat_id": 33773,
        "meta_element_set_no": 999,
        "meta_rev_at_epoch": 88259,
        "meta_bstar": 0.00068037086,
        "meta_mean_motion_dot": 2.309e-05,
        "meta_mean_motion_ddot": 0,
        "tle_line1": "1 33773U 97051L   25340.61373621  .00002309  00000+0  68037-3 0  9998",
        "tle_line2": "2 33773  86.4017  63.1853 0011907 164.8010 195.3551 14.43237139882593"
      },
      "geometry": {
        "type": "Point",
        "coordinates": [
          11.047050097295703,
          -85.43430092325366
        ]
      }
    },
    {
      "type": "Feature",
      "properties": {
        "norad_id": 33775,
        "name": "IRIDIUM 33 DEB",
        "group": "iridium-33-debris",
        "lat": 33.17771529816346,
        "lon": 54.41048907713509,
        "alt_km": 759.1189896547257,
        "timestamp": "2025-12-06T22:38:43.113205+00:00",
        "meta_object_name": "IRIDIUM 33 DEB",
        "meta_object_id": "1997-051N",
        "meta_epoch": "2025-12-06T14:42:08.290944",
        "meta_mean_motion": 14.41448127,
        "meta_eccentricity": 0.0013586,
        "meta_inclination": 86.3642,
        "meta_ra_of_asc_node": 52.1691,
        "meta_arg_of_pericenter": 173.9227,
        "meta_mean_anomaly": 303.2033,
        "meta_ephemeris_type": 0,
        "meta_classification_type": "U",
        "meta_norad_cat_id": 33775,
        "meta_element_set_no": 999,
        "meta_rev_at_epoch": 88052,
        "meta_bstar": 0.00063723429,
        "meta_mean_motion_dot": 2.087e-05,
        "meta_mean_motion_ddot": 0,
        "tle_line1": "1 33775U 97051N   25340.61259596  .00002087  00000+0  63723-3 0  9994",
        "tle_line2": "2 33775  86.3642  52.1691 0013586 173.9227 303.2033 14.41448127880527"
      },
      "geometry": {
        "type": "Point",
        "coordinates": [
          54.41048907713509,
          33.17771529816346
        ]
      }
    },
    {
      "type": "Feature",
      "properties": {
        "norad_id": 33776,
        "name": "IRIDIUM 33 DEB",
        "group": "iridium-33-debris",
        "lat": -29.421313612984637,
        "lon": 81.17706965047626,
        "alt_km": 775.2883222495775,
        "timestamp": "2025-12-06T22:38:43.113219+00:00",
        "meta_object_name": "IRIDIUM 33 DEB",
        "meta_object_id": "1997-051P",
        "meta_epoch": "2025-12-06T12:48:52.579296",
        "meta_mean_motion": 14.38216694,
        "meta_eccentricity": 0.00136613,
        "meta_inclination": 86.4036,
        "meta_ra_of_asc_node": 83.3817,
        "meta_arg_of_pericenter": 211.7176,
        "meta_mean_anomaly": 159.3135,
        "meta_ephemeris_type": 0,
        "meta_classification_type": "U",
        "meta_norad_cat_id": 33776,
        "meta_element_set_no": 999,
        "meta_rev_at_epoch": 87993,
        "meta_bstar": 0.00060095793,
        "meta_mean_motion_dot": 1.846e-05,
        "meta_mean_motion_ddot": 0,
        "tle_line1": "1 33776U 97051P   25340.53394189  .00001846  00000+0  60096-3 0  9996",
        "tle_line2": "2 33776  86.4036  83.3817 0013661 211.7176 159.3135 14.38216694879934"
      },
      "geometry": {
        "type": "Point",
        "coordinates": [
          81.17706965047626,
          -29.421313612984637
        ]
      }
    },
    {
      "type": "Feature",
      "properties": {
        "norad_id": 33777,
        "name": "IRIDIUM 33 DEB",
        "group": "iridium-33-debris",
        "lat": 63.13801709440348,
        "lon": -149.4574965099858,
        "alt_km": 704.9169823955772,
        "timestamp": "2025-12-06T22:38:43.113231+00:00",
        "meta_object_name": "IRIDIUM 33 DEB",
        "meta_object_id": "1997-051Q",
        "meta_epoch": "2025-12-06T15:30:41.304960",
        "meta_mean_motion": 14.55545884,
        "meta_eccentricity": 0.00050971,
        "meta_inclination": 86.3789,
        "meta_ra_of_asc_node": 37.8541,
        "meta_arg_of_pericenter": 277.8522,
        "meta_mean_anomaly": 82.2107,
        "meta_ephemeris_type": 0,
        "meta_classification_type": "U",
        "meta_norad_cat_id": 33777,
        "meta_element_set_no": 999,
        "meta_rev_at_epoch": 88445,
        "meta_bstar": 0.0016217389,
        "meta_mean_motion_dot": 7.087e-05,
        "meta_mean_motion_ddot": 0,
        "tle_line1": "1 33777U 97051Q   25340.64631140  .00007087  00000+0  16217-2 0  9998",
        "tle_line2": "2 33777  86.3789  37.8541 0005097 277.8522  82.2107 14.55545884884450"
      },
      "geometry": {
        "type": "Point",
        "coordinates": [
          -149.4574965099858,
          63.13801709440348
        ]
      }
    },
    {
      "type": "Feature",
      "properties": {
        "norad_id": 33850,
        "name": "IRIDIUM 33 DEB",
        "group": "iridium-33-debris",
        "lat": 0.0889416359768329,
        "lon": 32.67771416496111,
        "alt_km": 762.8068537015624,
        "timestamp": "2025-12-06T22:38:43.113244+00:00",
        "meta_object_name": "IRIDIUM 33 DEB",
        "meta_object_id": "1997-051T",
        "meta_epoch": "2025-12-06T14:51:22.381056",
        "meta_mean_motion": 14.42127892,
        "meta_eccentricity": 0.00116223,
        "meta_inclination": 86.3422,
        "meta_ra_of_asc_node": 32.8115,
        "meta_arg_of_pericenter": 179.9702,
        "meta_mean_anomaly": 296.383,
        "meta_ephemeris_type": 0,
        "meta_classification_type": "U",
        "meta_norad_cat_id": 33850,
        "meta_element_set_no": 999,
        "meta_rev_at_epoch": 88064,
        "meta_bstar": 0.00071044895,
        "meta_mean_motion_dot": 2.357e-05,
        "meta_mean_motion_ddot": 0,
        "tle_line1": "1 33850U 97051T   25340.61900904  .00002357  00000+0  71045-3 0  9990",
        "tle_line2": "2 33850  86.3422  32.8115 0011622 179.9702 296.3830 14.42127892880640"
      },
      "geometry": {
        "type": "Point",
        "coordinates": [
          32.67771416496111,
          0.0889416359768329
        ]
      }
    },
    {
      "type": "Feature",
      "properties": {
        "norad_id": 33853,
        "name": "IRIDIUM 33 DEB",
        "group": "iridium-33-debris",
        "lat": -19.446177713694663,
        "lon": 173.76911333710564,
        "alt_km": 812.7668327148858,
        "timestamp": "2025-12-06T22:38:43.113257+00:00",
        "meta_object_name": "IRIDIUM 33 DEB",
        "meta_object_id": "1997-051W",
        "meta_epoch": "2025-12-06T01:20:40.145280",
        "meta_mean_motion": 13.98996875,
        "meta_eccentricity": 0.02068178,
        "meta_inclination": 85.9999,
        "meta_ra_of_asc_node": 352.7424,
        "meta_arg_of_pericenter": 256.5072,
        "meta_mean_anomaly": 157.5204,
        "meta_ephemeris_type": 0,
        "meta_classification_type": "U",
        "meta_norad_cat_id": 33853,
        "meta_element_set_no": 999,
        "meta_rev_at_epoch": 85252,
        "meta_bstar": 0.0034440832,
        "meta_mean_motion_dot": 5.992e-05,
        "meta_mean_motion_ddot": 0,
        "tle_line1": "1 33853U 97051W   25340.05602020  .00005992  00000+0  34441-2 0  9995",
        "tle_line2": "2 33853  85.9999 352.7424 0206817 256.5072 157.5204 13.98996875852522"
      },
      "geometry": {
        "type": "Point",
        "coordinates": [
          173.76911333710564,
          -19.446177713694663
        ]
      }
    }
  ]
}